ORBCOMM FM24            
1 25478U 98053D   25198.24703178  .00000692  00000+0  27251-3 0  9994
2 25478  45.0076 126.5632 0003622 357.3539   2.7290 14.38149000401772
ORBCOMM FM26            
1 25480U 98053F   25198.18064176  .00000569  00000+0  23689-3 0  9992
2 25480  45.0065 121.8270 0006692  38.1397 321.9923 14.37175576401961
ORBCOMM FM27            
1 25481U 98053G   25198.13655318  .00000769  00000+0  29765-3 0  9995
2 25481  45.0050 125.5538 0002256 346.7262  13.3527 14.38152496401986
ORBCOMM FM28            
1 25482U 98053H   25198.03141503  .00000469  00000+0  19885-3 0  9990
2 25482  45.0061  63.5104 0005023  80.7227 279.4189 14.38335687402659
ORBCOMM FM30            
1 25980U 99065A   25198.51472505  .00000470  00000+0  20320-3 0  9997
2 25980  45.0325 306.1608 0007624 172.5041 187.5922 14.37344130338815
ORBCOMM FM31            
1 25981U 99065B   25198.35026369  .00000525  00000+0  22166-3 0  9994
2 25981  45.0234 300.4209 0005518 197.1550 162.9112 14.37282629338347
ORBCOMM FM32            
1 25982U 99065C   25198.34727918  .00000564  00000+0  23911-3 0  9994
2 25982  45.0170 317.2165 0007654 186.6501 173.4246 14.36327271338938
